{
    "links": {
        "self": "http://www.neowsapp.com/rest/v1/neo/3884014?api_key=iIulBulltgU6a56xZRHN4H3l9WmuAYTsLGpBGhQ2"
    },
    "id": "3884014",
    "neo_reference_id": "3884014",
    "name": "(2019 UX8)",
    "designation": "2019 UX8",
    "nasa_jpl_url": "http://ssd.jpl.nasa.gov/sbdb.cgi?sstr=3884014",
    "absolute_magnitude_h": 25.0,
    "estimated_diameter": {
        "kilometers": {
            "estimated_diameter_min": 0.02658,
            "estimated_diameter_max": 0.0594346868
        },
        "meters": {
            "estimated_diameter_min": 26.58,
            "estimated_diameter_max": 59.4346868419
        },
        "miles": {
            "estimated_diameter_min": 0.0165160412,
            "estimated_diameter_max": 0.0369309908
        },
        "feet": {
            "estimated_diameter_min": 87.2047272,
            "estimated_diameter_max": 194.9956979785
        }
    },
    "is_potentially_hazardous_asteroid": false,
    "close_approach_data": [
        {
            "close_approach_date": "2016-10-22",
            "close_approach_date_full": "2016-Oct-22 11:59",
            "epoch_date_close_approach": 1477137540000,
            "relative_velocity": {
                "kilometers_per_second": "12.7455476386",
                "kilometers_per_hour": "45883.9714989247",
                "miles_per_hour": "28510.5155127624"
            },
            "miss_distance": {
                "astronomical": "0.3059382418",
                "lunar": "119.0099760602",
                "kilometers": "45767709.324824966",
                "miles": "28438735.8527418908"
            },
            "orbiting_body": "Earth"
        },
        {
            "close_approach_date": "2019-10-22",
            "close_approach_date_full": "2019-Oct-22 10:38",
            "epoch_date_close_approach": 1571740680000,
            "relative_velocity": {
                "kilometers_per_second": "8.273214254",
                "kilometers_per_hour": "29783.5713142566",
                "miles_per_hour": "18506.3529646835"
            },
            "miss_distance": {
                "astronomical": "0.1080073381",
                "lunar": "42.0148545209",
                "kilometers": "16157667.724129847",
                "miles": "10039909.1670000086"
            },
            "orbiting_body": "Earth"
        }
    ],
    "orbital_data": {
        "orbit_id": "3",
        "orbit_determination_date": "2019-10-31 07:12:06",
        "first_observation_date": "2019-10-24",
        "last_observation_date": "2019-10-31",
        "data_arc_in_days": 7,
        "observations_used": 18,
        "orbit_uncertainty": "8",
        "minimum_orbit_intersection": ".107536",
        "jupiter_tisserand_invariant": "4.962",
        "epoch_osculation": "2458782.5",
        "eccentricity": ".1773980733058657",
        "semi_major_axis": "1.297433537094497",
        "inclination": "14.56098242886007",
        "ascending_node_longitude": "37.50952179479109",
        "orbital_period": "539.7915807223077",
        "perihelion_distance": "1.067271327371519",
        "perihelion_argument": "317.5253048875124",
        "aphelion_distance": "1.527595746817476",
        "perihelion_time": "2458744.695611563608",
        "mean_anomaly": "25.21265674223712",
        "mean_motion": ".6669240737661666",
        "equinox": "J2000",
        "orbit_class": {
            "orbit_class_type": "AMO",
            "orbit_class_description": "Near-Earth asteroid orbits similar to that of 1221 Amor",
            "orbit_class_range": "1.017 AU < q (perihelion) < 1.3 AU"
        }
    },
    "is_sentry_object": false
}